{
  "type": "FeatureCollection",
  "features": [
    {
      "type": "Feature",
      "properties": {
        "norad_id": 37867,
        "name": "COSMOS 2476 (744)",
        "group": "glo-ops",
        "lat": 61.3718680349169,
        "lon": 137.4579059691549,
        "alt_km": 19179.796875155433,
        "timestamp": "2025-12-02T10:50:47.534916+00:00",
        "meta_object_name": "COSMOS 2476 (744)",
        "meta_object_id": "2011-064A",
        "meta_epoch": "2025-12-01T09:39:55.197216",
        "meta_mean_motion": 2.13101277,
        "meta_eccentricity": 0.002392,
        "meta_inclination": 65.1564,
        "meta_ra_of_asc_node": 79.5552,
        "meta_arg_of_pericenter": 233.3514,
        "meta_mean_anomaly": 117.0738,
        "meta_ephemeris_type": 0,
        "meta_classification_type": "U",
        "meta_norad_cat_id": 37867,
        "meta_element_set_no": 999,
        "meta_rev_at_epoch": 10954,
        "meta_bstar": 0,
        "meta_mean_motion_dot": -1.3e-07,
        "meta_mean_motion_ddot": 0,
        "tle_line1": "1 37867U 11064A   25335.40272219 -.00000013  00000+0  00000+0 0  9991",
        "tle_line2": "2 37867  65.1564  79.5552 0023920 233.3514 117.0738  2.13101277109540"
      },
      "geometry": {
        "type": "Point",
        "coordinates": [
          137.4579059691549,
          61.3718680349169
        ]
      }
    },
    {
      "type": "Feature",
      "properties": {
        "norad_id": 37868,
        "name": "COSMOS 2477 (745)",
        "group": "glo-ops",
        "lat": -61.888004580252264,
        "lon": -40.44121027924269,
        "alt_km": 19086.924962650428,
        "timestamp": "2025-12-02T10:50:47.534927+00:00",
        "meta_object_name": "COSMOS 2477 (745)",
        "meta_object_id": "2011-064B",
        "meta_epoch": "2025-12-01T05:34:43.743072",
        "meta_mean_motion": 2.1310269,
        "meta_eccentricity": 0.00209845,
        "meta_inclination": 65.1625,
        "meta_ra_of_asc_node": 79.6383,
        "meta_arg_of_pericenter": 233.8301,
        "meta_mean_anomaly": 166.8442,
        "meta_ephemeris_type": 0,
        "meta_classification_type": "U",
        "meta_norad_cat_id": 37868,
        "meta_element_set_no": 999,
        "meta_rev_at_epoch": 10954,
        "meta_bstar": 0,
        "meta_mean_motion_dot": -1.2e-07,
        "meta_mean_motion_ddot": 0,
        "tle_line1": "1 37868U 11064B   25335.23245073 -.00000012  00000+0  00000+0 0  9990",
        "tle_line2": "2 37868  65.1625  79.6383 0020984 233.8301 166.8442  2.13102690109542"
      },
      "geometry": {
        "type": "Point",
        "coordinates": [
          -40.44121027924269,
          -61.888004580252264
        ]
      }
    },
    {
      "type": "Feature",
      "properties": {
        "norad_id": 37869,
        "name": "COSMOS 2475 (743)",
        "group": "glo-ops",
        "lat": -28.84358762247487,
        "lon": -85.63353295899414,
        "alt_km": 19080.24696930906,
        "timestamp": "2025-12-02T10:50:47.534938+00:00",
        "meta_object_name": "COSMOS 2475 (743)",
        "meta_object_id": "2011-064C",
        "meta_epoch": "2025-12-01T05:41:50.555616",
        "meta_mean_motion": 2.13101369,
        "meta_eccentricity": 0.00260135,
        "meta_inclination": 65.1695,
        "meta_ra_of_asc_node": 79.658,
        "meta_arg_of_pericenter": 248.1873,
        "meta_mean_anomaly": 112.2788,
        "meta_ephemeris_type": 0,
        "meta_classification_type": "U",
        "meta_norad_cat_id": 37869,
        "meta_element_set_no": 999,
        "meta_rev_at_epoch": 10955,
        "meta_bstar": 0,
        "meta_mean_motion_dot": -1.2e-07,
        "meta_mean_motion_ddot": 0,
        "tle_line1": "1 37869U 11064C   25335.23739069 -.00000012  00000+0  00000+0 0  9994",
        "tle_line2": "2 37869  65.1695  79.6580 0026013 248.1873 112.2788  2.13101369109552"
      },
      "geometry": {
        "type": "Point",
        "coordinates": [
          -85.63353295899414,
          -28.84358762247487
        ]
      }
    },
    {
      "type": "Feature",
      "properties": {
        "norad_id": 39155,
        "name": "COSMOS 2485 (747)",
        "group": "glo-ops",
        "lat": 49.34127943974084,
        "lon": -132.1262726368377,
        "alt_km": 19139.652599911784,
        "timestamp": "2025-12-02T10:50:47.534950+00:00",
        "meta_object_name": "COSMOS 2485 (747)",
        "meta_object_id": "2013-019A",
        "meta_epoch": "2025-11-24T07:30:54.982368",
        "meta_mean_motion": 2.13103115,
        "meta_eccentricity": 0.0024274,
        "meta_inclination": 65.3036,
        "meta_ra_of_asc_node": 80.4871,
        "meta_arg_of_pericenter": 228.0776,
        "meta_mean_anomaly": 131.7167,
        "meta_ephemeris_type": 0,
        "meta_classification_type": "U",
        "meta_norad_cat_id": 39155,
        "meta_element_set_no": 999,
        "meta_rev_at_epoch": 9791,
        "meta_bstar": 0,
        "meta_mean_motion_dot": 1.2e-07,
        "meta_mean_motion_ddot": 0,
        "tle_line1": "1 39155U 13019A   25328.31313637  .00000012  00000+0  00000+0 0  9995",
        "tle_line2": "2 39155  65.3036  80.4871 0024274 228.0776 131.7167  2.13103115 97916"
      },
      "geometry": {
        "type": "Point",
        "coordinates": [
          -132.1262726368377,
          49.34127943974084
        ]
      }
    },
    {
      "type": "Feature",
      "properties": {
        "norad_id": 39620,
        "name": "COSMOS 2492 (754)",
        "group": "glo-ops",
        "lat": 22.203395767326615,
        "lon": 129.8406738496779,
        "alt_km": 19160.259325698375,
        "timestamp": "2025-12-02T10:50:47.534961+00:00",
        "meta_object_name": "COSMOS 2492 (754)",
        "meta_object_id": "2014-012A",
        "meta_epoch": "2025-12-01T18:43:02.781984",
        "meta_mean_motion": 2.13103082,
        "meta_eccentricity": 0.0014157,
        "meta_inclination": 65.4139,
        "meta_ra_of_asc_node": 320.6425,
        "meta_arg_of_pericenter": 310.9,
        "meta_mean_anomaly": 48.9873,
        "meta_ephemeris_type": 0,
        "meta_classification_type": "U",
        "meta_norad_cat_id": 39620,
        "meta_element_set_no": 999,
        "meta_rev_at_epoch": 9103,
        "meta_bstar": 0,
        "meta_mean_motion_dot": -2.9e-07,
        "meta_mean_motion_ddot": 0,
        "tle_line1": "1 39620U 14012A   25335.77989331 -.00000029  00000+0  00000+0 0  9993",
        "tle_line2": "2 39620  65.4139 320.6425 0014157 310.9000  48.9873  2.13103082 91035"
      },
      "geometry": {
        "type": "Point",
        "coordinates": [
          129.8406738496779,
          22.203395767326615
        ]
      }
    },
    {
      "type": "Feature",
      "properties": {
        "norad_id": 40001,
        "name": "COSMOS 2500 (755)",
        "group": "glo-ops",
        "lat": 21.09029722063613,
        "lon": -29.420656742545464,
        "alt_km": 19147.69552117067,
        "timestamp": "2025-12-02T10:50:47.534973+00:00",
        "meta_object_name": "COSMOS 2500 (755)",
        "meta_object_id": "2014-032A",
        "meta_epoch": "2025-12-01T22:51:13.641408",
        "meta_mean_motion": 2.13105853,
        "meta_eccentricity": 0.0008298,
        "meta_inclination": 65.3495,
        "meta_ra_of_asc_node": 320.3998,
        "meta_arg_of_pericenter": 219.081,
        "meta_mean_anomaly": 140.8682,
        "meta_ephemeris_type": 0,
        "meta_classification_type": "U",
        "meta_norad_cat_id": 40001,
        "meta_element_set_no": 999,
        "meta_rev_at_epoch": 8925,
        "meta_bstar": 0,
        "meta_mean_motion_dot": -3.1e-07,
        "meta_mean_motion_ddot": 0,
        "tle_line1": "1 40001U 14032A   25335.95224122 -.00000031  00000+0  00000+0 0  9993",
        "tle_line2": "2 40001  65.3495 320.3998 0008298 219.0810 140.8682  2.13105853 89252"
      },
      "geometry": {
        "type": "Point",
        "coordinates": [
          -29.420656742545464,
          21.09029722063613
        ]
      }
    },
    {
      "type": "Feature",
      "properties": {
        "norad_id": 40315,
        "name": "COSMOS 2501 (702K)",
        "group": "glo-ops",
        "lat": -3.6343588306587433,
        "lon": 18.989975160735025,
        "alt_km": 19082.79163109661,
        "timestamp": "2025-12-02T10:50:47.534985+00:00",
        "meta_object_name": "COSMOS 2501 (702K)",
        "meta_object_id": "2014-075A",
        "meta_epoch": "2025-11-30T19:17:52.497312",
        "meta_mean_motion": 2.13101305,
        "meta_eccentricity": 0.00201676,
        "meta_inclination": 63.6137,
        "meta_ra_of_asc_node": 197.2386,
        "meta_arg_of_pericenter": 204.7979,
        "meta_mean_anomaly": 155.1955,
        "meta_ephemeris_type": 0,
        "meta_classification_type": "U",
        "meta_norad_cat_id": 40315,
        "meta_element_set_no": 999,
        "meta_rev_at_epoch": 8562,
        "meta_bstar": 0,
        "meta_mean_motion_dot": 1e-06,
        "meta_mean_motion_ddot": 0,
        "tle_line1": "1 40315U 14075A   25334.80407983  .00000100  00000+0  00000+0 0  9995",
        "tle_line2": "2 40315  63.6137 197.2386 0020167 204.7979 155.1955  2.13101305 85629"
      },
      "geometry": {
        "type": "Point",
        "coordinates": [
          18.989975160735025,
          -3.6343588306587433
        ]
      }
    }
  ]
}